start=new Date('2022-02-22T00:00:00.000Z').valueOf();
sats=[{"LAUNCH_DATE":"2020-06-13","OBJECT_NAME":"STARLINK-1500","REV_AT_EPOCH":"9357","ELEMENT_SET_NO":"999","MEAN_ANOMALY":"306.6790","SEMIMAJOR_AXIS":"6925.373","OBJECT_ID":"2020-038Q","TIME_SYSTEM":"UTC","GP_ID":"196570783","MEAN_MOTION_DDOT":"0.0000000000000","ECCENTRICITY":"0.00016590","OBJECT_TYPE":"PAYLOAD","REF_FRAME":"TEME","PERIAPSIS":"546.089","SITE":"AFETR","TLE_LINE1":"1 45744U 20038Q   22052.66337286 -.00000318  00000-0 -24289-5 0  9993","ARG_OF_PERICENTER":"53.4352","APOAPSIS":"548.387","EPHEMERIS_TYPE":"0","NORAD_CAT_ID":"45744","DECAY_DATE":null,"CLASSIFICATION_TYPE":"U","BSTAR":"-0.00000242890000","RCS_SIZE":"LARGE","PERIOD":"95.593","EPOCH":"2022-02-21T15:55:15.415104","MEAN_MOTION":"15.06391916","RA_OF_ASC_NODE":"27.2436","MEAN_MOTION_DOT":"-0.00000318","INCLINATION":"53.0543","FILE":"3312023","MEAN_ELEMENT_THEORY":"SGP4","TLE_LINE2":"2 45744  53.0543  27.2436 0001659  53.4352 306.6790 15.06391916 93579","COUNTRY_CODE":"US","CENTER_NAME":"EARTH"},{"REF_FRAME":"TEME","OBJECT_TYPE":"PAYLOAD","PERIAPSIS":"545.904","MEAN_MOTION_DDOT":"0.0000000000000","ECCENTRICITY":"0.00018440","APOAPSIS":"548.458","EPHEMERIS_TYPE":"0","DECAY_DATE":null,"NORAD_CAT_ID":"45745","BSTAR":"0.00022972000000","CLASSIFICATION_TYPE":"U","SITE":"AFETR","TLE_LINE1":"1 45745U 20038R   22052.91769459  .00003143  00000-0  22972-3 0  9995","ARG_OF_PERICENTER":"58.4269","MEAN_ANOMALY":"301.6900","SEMIMAJOR_AXIS":"6925.316","TIME_SYSTEM":"UTC","OBJECT_ID":"2020-038R","LAUNCH_DATE":"2020-06-13","OBJECT_NAME":"STARLINK-1503","REV_AT_EPOCH":"9360","ELEMENT_SET_NO":"999","GP_ID":"196569530","INCLINATION":"53.0554","FILE":"3312023","MEAN_ELEMENT_THEORY":"SGP4","RA_OF_ASC_NODE":"26.1153","MEAN_MOTION_DOT":"0.00003143","TLE_LINE2":"2 45745  53.0554  26.1153 0001844  58.4269 301.6900 15.06410751 93605","COUNTRY_CODE":"US","CENTER_NAME":"EARTH","RCS_SIZE":"LARGE","PERIOD":"95.591","EPOCH":"2022-02-21T22:01:28.812576","MEAN_MOTION":"15.06410751"},{"REF_FRAME":"TEME","OBJECT_TYPE":"PAYLOAD","PERIAPSIS":"545.968","MEAN_MOTION_DDOT":"0.0000000000000","ECCENTRICITY":"0.00017810","EPHEMERIS_TYPE":"0","APOAPSIS":"548.435","BSTAR":"0.00002729000000","CLASSIFICATION_TYPE":"U","NORAD_CAT_ID":"45746","DECAY_DATE":null,"TLE_LINE1":"1 45746U 20038S   22052.40166237  .00000125  00000-0  27290-4 0  9991","SITE":"AFETR","ARG_OF_PERICENTER":"51.2153","MEAN_ANOMALY":"308.8995","OBJECT_ID":"2020-038S","TIME_SYSTEM":"UTC","SEMIMAJOR_AXIS":"6925.337","OBJECT_NAME":"STARLINK-1504","REV_AT_EPOCH":"9352","LAUNCH_DATE":"2020-06-13","ELEMENT_SET_NO":"999","GP_ID":"196569779","FILE":"3312023","INCLINATION":"53.0546","MEAN_ELEMENT_THEORY":"SGP4","MEAN_MOTION_DOT":"0.00000125","RA_OF_ASC_NODE":"28.4119","TLE_LINE2":"2 45746  53.0546  28.4119 0001781  51.2153 308.8995 15.06403854 93527","CENTER_NAME":"EARTH","COUNTRY_CODE":"US","RCS_SIZE":"LARGE","MEAN_MOTION":"15.06403854","PERIOD":"95.592","EPOCH":"2022-02-21T09:38:23.628768"},{"ARG_OF_PERICENTER":"56.5375","SITE":"AFETR","TLE_LINE1":"1 45747U 20038T   22052.93612886  .00000071  00000-0  23690-4 0  9996","CLASSIFICATION_TYPE":"U","BSTAR":"0.00002369000000","DECAY_DATE":null,"NORAD_CAT_ID":"45747","APOAPSIS":"548.424","EPHEMERIS_TYPE":"0","ECCENTRICITY":"0.00017430","MEAN_MOTION_DDOT":"0.0000000000000","PERIAPSIS":"546.010","REF_FRAME":"TEME","OBJECT_TYPE":"PAYLOAD","GP_ID":"196571029","ELEMENT_SET_NO":"999","REV_AT_EPOCH":"9361","OBJECT_NAME":"STARLINK-1506","LAUNCH_DATE":"2020-06-13","OBJECT_ID":"2020-038T","TIME_SYSTEM":"UTC","SEMIMAJOR_AXIS":"6925.352","MEAN_ANOMALY":"303.5781","COUNTRY_CODE":"US","CENTER_NAME":"EARTH","TLE_LINE2":"2 45747  53.0563  26.0222 0001743  56.5375 303.5781 15.06398824 93613","MEAN_MOTION_DOT":"0.00000071","RA_OF_ASC_NODE":"26.0222","MEAN_ELEMENT_THEORY":"SGP4","FILE":"3312023","INCLINATION":"53.0563","MEAN_MOTION":"15.06398824","PERIOD":"95.592","EPOCH":"2022-02-21T22:28:01.533504","RCS_SIZE":"LARGE"},{"TLE_LINE2":"2 45748  53.0526  26.0853 0001511  67.4528 292.6621 15.06402539 93606","COUNTRY_CODE":"US","CENTER_NAME":"EARTH","RA_OF_ASC_NODE":"26.0853","MEAN_MOTION_DOT":"-0.00000243","INCLINATION":"53.0526","FILE":"3312023","MEAN_ELEMENT_THEORY":"SGP4","EPOCH":"2022-02-21T22:10:43.929984","PERIOD":"95.592","MEAN_MOTION":"15.06402539","RCS_SIZE":"LARGE","TLE_LINE1":"1 45748U 20038U   22052.92411956 -.00000243  00000-0  25863-5 0  9998","SITE":"AFETR","ARG_OF_PERICENTER":"67.4528","APOAPSIS":"548.252","EPHEMERIS_TYPE":"0","NORAD_CAT_ID":"45748","DECAY_DATE":null,"BSTAR":"0.00000258630000","CLASSIFICATION_TYPE":"U","MEAN_MOTION_DDOT":"0.0000000000000","ECCENTRICITY":"0.00015110","REF_FRAME":"TEME","OBJECT_TYPE":"PAYLOAD","PERIAPSIS":"546.159","GP_ID":"196571284","LAUNCH_DATE":"2020-06-13","OBJECT_NAME":"STARLINK-1507","REV_AT_EPOCH":"9360","ELEMENT_SET_NO":"999","MEAN_ANOMALY":"292.6621","SEMIMAJOR_AXIS":"6925.341","TIME_SYSTEM":"UTC","OBJECT_ID":"2020-038U"},{"MEAN_ELEMENT_THEORY":"SGP4","FILE":"3312023","INCLINATION":"53.0550","MEAN_MOTION_DOT":"-0.00001705","RA_OF_ASC_NODE":"6.2521","CENTER_NAME":"EARTH","COUNTRY_CODE":"US","TLE_LINE2":"2 45750  53.0550   6.2521 0001719  60.1590 299.9569 15.06390434 93899","RCS_SIZE":"LARGE","MEAN_MOTION":"15.06390434","PERIOD":"95.593","EPOCH":"2022-02-21T21:16:22.390464","PERIAPSIS":"546.052","OBJECT_TYPE":"PAYLOAD","REF_FRAME":"TEME","ECCENTRICITY":"0.00017190","MEAN_MOTION_DDOT":"0.0000000000000","BSTAR":"-0.00009561500000","CLASSIFICATION_TYPE":"U","NORAD_CAT_ID":"45750","DECAY_DATE":null,"APOAPSIS":"548.433","EPHEMERIS_TYPE":"0","ARG_OF_PERICENTER":"60.1590","TLE_LINE1":"1 45750U 20038W   22052.88637026 -.00001705  00000-0 -95615-4 0  9990","SITE":"AFETR","OBJECT_ID":"2020-038W","TIME_SYSTEM":"UTC","SEMIMAJOR_AXIS":"6925.378","MEAN_ANOMALY":"299.9569","ELEMENT_SET_NO":"999","OBJECT_NAME":"STARLINK-1391","REV_AT_EPOCH":"9389","LAUNCH_DATE":"2020-06-13","GP_ID":"196570031"},{"TLE_LINE2":"2 45751  53.0566   8.9410 0001919  54.7787 305.3382 15.06404449 93800","CENTER_NAME":"EARTH","COUNTRY_CODE":"US","MEAN_MOTION_DOT":"0.00004778","RA_OF_ASC_NODE":"8.9410","FILE":"3312023","INCLINATION":"53.0566","MEAN_ELEMENT_THEORY":"SGP4","MEAN_MOTION":"15.06404449","EPOCH":"2022-02-21T06:51:12.037536","PERIOD":"95.592","RCS_SIZE":"LARGE","SITE":"AFETR","TLE_LINE1":"1 45751U 20038X   22052.28555599  .00004778  00000-0  33938-3 0  9999","ARG_OF_PERICENTER":"54.7787","APOAPSIS":"548.529","EPHEMERIS_TYPE":"0","CLASSIFICATION_TYPE":"U","BSTAR":"0.00033938000000","NORAD_CAT_ID":"45751","DECAY_DATE":null,"MEAN_MOTION_DDOT":"0.0000000000000","ECCENTRICITY":"0.00019190","REF_FRAME":"TEME","OBJECT_TYPE":"PAYLOAD","PERIAPSIS":"545.871","GP_ID":"196570280","REV_AT_EPOCH":"9380","OBJECT_NAME":"STARLINK-1464","LAUNCH_DATE":"2020-06-13","ELEMENT_SET_NO":"999","MEAN_ANOMALY":"305.3382","TIME_SYSTEM":"UTC","OBJECT_ID":"2020-038X","SEMIMAJOR_AXIS":"6925.335"},{"TLE_LINE1":"1 45752U 20038Y   22052.87521670  .00008209  00000-0  54171-4 0  9994","SITE":"AFETR","ARG_OF_PERICENTER":"321.7238","EPHEMERIS_TYPE":"0","APOAPSIS":"342.066","BSTAR":"0.00005417100000","CLASSIFICATION_TYPE":"U","NORAD_CAT_ID":"45752","DECAY_DATE":null,"MEAN_MOTION_DDOT":"0.0000000000000","ECCENTRICITY":"0.00033830","REF_FRAME":"TEME","OBJECT_TYPE":"PAYLOAD","PERIAPSIS":"337.521","GP_ID":"196570529","REV_AT_EPOCH":"9740","OBJECT_NAME":"STARLINK-1469","LAUNCH_DATE":"2020-06-13","ELEMENT_SET_NO":"999","MEAN_ANOMALY":"38.3541","OBJECT_ID":"2020-038Y","TIME_SYSTEM":"UTC","SEMIMAJOR_AXIS":"6717.928","TLE_LINE2":"2 45752  53.0020 112.6354 0003383 321.7238  38.3541 15.76702286 97408","CENTER_NAME":"EARTH","COUNTRY_CODE":"US","MEAN_MOTION_DOT":"0.00008209","RA_OF_ASC_NODE":"112.6354","FILE":"3312023","INCLINATION":"53.0020","MEAN_ELEMENT_THEORY":"SGP4","MEAN_MOTION":"15.76702286","EPOCH":"2022-02-21T21:00:18.722880","PERIOD":"91.330","RCS_SIZE":"LARGE"},{"FILE":"3312023","INCLINATION":"53.0559","MEAN_ELEMENT_THEORY":"SGP4","MEAN_MOTION_DOT":"-0.00003038","RA_OF_ASC_NODE":"6.2223","TLE_LINE2":"2 45753  53.0559   6.2223 0001887  60.9140 299.2037 15.06391515 93899","CENTER_NAME":"EARTH","COUNTRY_CODE":"US","RCS_SIZE":"LARGE","MEAN_MOTION":"15.06391515","EPOCH":"2022-02-21T21:26:58.998624","PERIOD":"95.593","REF_FRAME":"TEME","OBJECT_TYPE":"PAYLOAD","PERIAPSIS":"545.933","MEAN_MOTION_DDOT":"0.0000000000000","ECCENTRICITY":"0.00018870","APOAPSIS":"548.546","EPHEMERIS_TYPE":"0","CLASSIFICATION_TYPE":"U","BSTAR":"-0.00018514000000","NORAD_CAT_ID":"45753","DECAY_DATE":null,"TLE_LINE1":"1 45753U 20038Z   22052.89373841 -.00003038  00000-0 -18514-3 0  9999","SITE":"AFETR","ARG_OF_PERICENTER":"60.9140","MEAN_ANOMALY":"299.2037","TIME_SYSTEM":"UTC","OBJECT_ID":"2020-038Z","SEMIMAJOR_AXIS":"6925.375","OBJECT_NAME":"STARLINK-1476","REV_AT_EPOCH":"9389","LAUNCH_DATE":"2020-06-13","ELEMENT_SET_NO":"999","GP_ID":"196570784"},{"TLE_LINE2":"2 45754  53.0550   8.5813 0001638  58.7000 301.4149 15.06401122 93813","COUNTRY_CODE":"US","CENTER_NAME":"EARTH","MEAN_MOTION_DOT":"0.00001258","RA_OF_ASC_NODE":"8.5813","FILE":"3312023","INCLINATION":"53.0550","MEAN_ELEMENT_THEORY":"SGP4","MEAN_MOTION":"15.06401122","PERIOD":"95.592","EPOCH":"2022-02-21T08:47:58.294752","RCS_SIZE":"LARGE","SITE":"AFETR","TLE_LINE1":"1 45754U 20038AA  22052.36664693  .00001258  00000-0  10333-3 0  9991","ARG_OF_PERICENTER":"58.7000","EPHEMERIS_TYPE":"0","APOAPSIS":"548.344","CLASSIFICATION_TYPE":"U","BSTAR":"0.00010333000000","DECAY_DATE":null,"NORAD_CAT_ID":"45754","MEAN_MOTION_DDOT":"0.0000000000000","ECCENTRICITY":"0.00016380","OBJECT_TYPE":"PAYLOAD","REF_FRAME":"TEME","PERIAPSIS":"546.076","GP_ID":"196569531","OBJECT_NAME":"STARLINK-1477","REV_AT_EPOCH":"9381","LAUNCH_DATE":"2020-06-13","ELEMENT_SET_NO":"999","MEAN_ANOMALY":"301.4149","OBJECT_ID":"2020-038AA","TIME_SYSTEM":"UTC","SEMIMAJOR_AXIS":"6925.345"}];
